LANDSAT 9               
1 49260U 21088A   23359.75085089  .00000759  00000+0  17844-3 0  9991
2 49260  98.2103  67.1430 0001141  89.7293 270.4036 14.57115335119280
